NORAD_CAT_ID,OBJECT_NAME,OBJECT_TYPE,EPOCH,MEAN_MOTION,ECCENTRICITY,INCLINATION,RA_OF_ASC_NODE,ARG_OF_PERICENTER,MEAN_ANOMALY,BSTAR,MEAN_MOTION_DOT,MEAN_MOTION_DDOT,TLE_LINE0,TLE_LINE1,TLE_LINE2,SEMIMAJOR_AXIS,PERIOD,APOGEE,PERIGEE,DECAYED
53781.0,STARLINK-4462,PAYLOAD,2024-03-22 18:09:23,15.08863287,0.0001584,53.2168,252.5547,84.3835,275.7338,0.00016219,2.296e-05,0.0,0 STARLINK-4462,1 53781U 22111J   24082.75652067  .00002296  00000-0  16219-3 0  9996,2 53781  53.2168 252.5547 0001584  84.3835 275.7338 15.08863287 85466,6917.809,95.436,540.77,538.578,0.0
53781.0,STARLINK-4462,PAYLOAD,2024-03-23 11:38:38,15.0883853,0.0001638,53.2164,249.2852,118.6573,241.4584,-0.00023265,-3.989e-05,0.0,0 STARLINK-4462,1 53781U 22111J   24083.48516610 -.00003989  00000-0 -23265-3 0  9991,2 53781  53.2164 249.2852 0001638 118.6573 241.4584 15.08838530 84762,6917.885,95.438,540.883,538.617,0.0
53781.0,STARLINK-4462,PAYLOAD,2024-03-23 18:00:11,15.08841369,0.0001416,53.2159,248.0966,99.3799,260.7354,-0.00011656,-2.143e-05,0.0,0 STARLINK-4462,1 53781U 22111J   24083.75012744 -.00002143  00000-0 -11656-3 0  9992,2 53781  53.2159 248.0966 0001416  99.3799 260.7354 15.08841369 85616,6917.876,95.437,540.721,538.762,0.0
53781.0,STARLINK-4462,PAYLOAD,2024-03-24 13:04:48,15.088469,0.0001241,53.2154,244.5262,97.3592,262.7541,0.00019631,2.838e-05,0.0,0 STARLINK-4462,1 53781U 22111J   24084.54500594  .00002838  00000-0  19631-3 0  9995,2 53781  53.2154 244.5262 0001241  97.3592 262.7541 15.08846900 84925,6917.859,95.437,540.583,538.866,0.0
53781.0,STARLINK-4462,PAYLOAD,2024-03-24 14:40:11,15.08848771,0.000124,53.2154,244.2288,96.8242,263.2891,0.00024478,3.611e-05,0.0,0 STARLINK-4462,1 53781U 22111J   24084.61124542  .00003611  00000-0  24478-3 0  9993,2 53781  53.2154 244.2288 0001240  96.8242 263.2891 15.08848771 85748,6917.854,95.437,540.576,538.861,0.0
53781.0,STARLINK-4462,PAYLOAD,2024-03-24 21:01:43,15.08893997,0.0001155,53.2155,243.0392,83.4245,276.6879,0.0028538,0.00045491,0.0,0 STARLINK-4462,1 53781U 22111J   24084.87620250  .00045491  00000-0  28538-2 0  9990,2 53781  53.2155 243.0392 0001155  83.4245 276.6879 15.08893997 84970,6917.715,95.434,540.379,538.781,0.0
53781.0,STARLINK-4462,PAYLOAD,2024-03-25 04:58:40,15.08833106,0.0001444,53.2156,241.5525,87.7647,272.351,1.2336e-05,-9.2e-07,0.0,0 STARLINK-4462,1 53781U 22111J   24085.20741016 -.00000092  00000-0  12336-4 0  9992,2 53781  53.2156 241.5525 0001444  87.7647 272.3510 15.08833106 85024,6917.901,95.438,540.765,538.768,0.0
53781.0,STARLINK-4462,PAYLOAD,2024-03-25 20:52:31,15.08851064,0.0001559,53.2153,238.5794,86.6279,273.4892,0.0018301,0.00028967,0.0,0 STARLINK-4462,1 53781U 22111J   24085.86981087  .00028967  00000-0  18301-2 0  9994,2 53781  53.2153 238.5794 0001559  86.6279 273.4892 15.08851064 85120,6917.847,95.437,540.79,538.633,0.0
53781.0,STARLINK-4462,PAYLOAD,2024-03-26 04:49:27,15.08822956,0.0001558,53.2154,237.0919,107.123,252.9933,2.9445e-05,1.8e-06,0.0,0 STARLINK-4462,1 53781U 22111J   24086.20101672  .00000180  00000-0  29445-4 0  9997,2 53781  53.2154 237.0919 0001558 107.1230 252.9933 15.08822956 85170,6917.932,95.439,540.875,538.72,0.0
53781.0,STARLINK-4462,PAYLOAD,2024-03-26 14:21:47,15.08824078,0.0001463,53.2154,235.3078,98.2323,261.8835,0.001055,0.00016535,0.0,0 STARLINK-4462,1 53781U 22111J   24086.59846395  .00016535  00000-0  10550-2 0  9993,2 53781  53.2154 235.3078 0001463  98.2323 261.8835 15.08824078 86049,6917.929,95.439,540.806,538.782,0.0
53781.0,STARLINK-4462,PAYLOAD,2024-03-26 22:18:43,15.08838441,0.0001523,53.2153,233.8209,99.737,260.3795,0.0019368,0.00030669,0.0,0 STARLINK-4462,1 53781U 22111J   24086.92966712  .00030669  00000-0  19368-2 0  9996,2 53781  53.2153 233.8209 0001523  99.7370 260.3795 15.08838441 86095,6917.885,95.438,540.804,538.697,0.0
53781.0,STARLINK-4462,PAYLOAD,2024-03-27 09:26:25,15.08848299,0.0001379,53.2155,231.7396,98.2975,261.8173,0.0011867,0.00018653,0.0,0 STARLINK-4462,1 53781U 22111J   24087.39334718  .00018653  00000-0  11867-2 0  9998,2 53781  53.2155 231.7396 0001379  98.2975 261.8173 15.08848299 85351,6917.855,95.437,540.674,538.766,0.0
53781.0,STARLINK-4462,PAYLOAD,2024-03-27 14:12:34,15.08857578,0.0001305,53.2156,230.8478,96.5939,263.5202,0.0012068,0.0001898,0.0,0 STARLINK-4462,1 53781U 22111J   24087.59206406  .00018980  00000-0  12068-2 0  9999,2 53781  53.2156 230.8478 0001305  96.5939 263.5202 15.08857578 86198,6917.827,95.436,540.594,538.789,0.0
53781.0,STARLINK-4462,PAYLOAD,2024-03-27 15:47:57,15.08861638,0.000151,53.2155,230.5503,94.964,265.1525,0.0012948,0.00020391,0.0,0 STARLINK-4462,1 53781U 22111J   24087.65830327  .00020391  00000-0  12948-2 0  9997,2 53781  53.2155 230.5503 0001510  94.9640 265.1525 15.08861638 86202,6917.814,95.436,540.724,538.635,0.0
53781.0,STARLINK-4462,PAYLOAD,2024-03-28 02:55:39,15.08857333,0.0001583,53.2157,228.4689,88.0998,272.0176,0.001001,0.00015686,0.0,0 STARLINK-4462,1 53781U 22111J   24088.12198257  .00015686  00000-0  10010-2 0  9998,2 53781  53.2157 228.4689 0001583  88.0998 272.0176 15.08857333 85468,6917.827,95.436,540.788,538.597,0.0
53781.0,STARLINK-4462,PAYLOAD,2024-03-28 12:27:58,15.08857805,0.0001924,53.2158,226.6843,99.6607,260.4603,0.0012192,0.00019178,0.0,0 STARLINK-4462,1 53781U 22111J   24088.51942145  .00019178  00000-0  12192-2 0  9997,2 53781  53.2158 226.6843 0001924  99.6607 260.4603 15.08857805 85522,6917.826,95.436,541.022,538.36,0.0
53781.0,STARLINK-4462,PAYLOAD,2024-03-29 12:18:44,15.08850809,0.0001073,53.2167,222.2245,81.1129,278.9985,0.00053422,8.227e-05,0.0,0 STARLINK-4462,1 53781U 22111J   24089.51301917  .00008227  00000-0  53422-3 0  9999,2 53781  53.2167 222.2245 0001073  81.1129 278.9985 15.08850809 85670,6917.847,95.437,540.455,538.97,0.0
53781.0,STARLINK-4462,PAYLOAD,2024-03-29 18:40:17,15.08854736,0.0001572,53.2168,221.0343,90.9424,269.1748,0.0004375,6.684e-05,0.0,0 STARLINK-4462,1 53781U 22111J   24089.77797653  .00006684  00000-0  43750-3 0  9991,2 53781  53.2168 221.0343 0001572  90.9424 269.1748 15.08854736 86524,6917.835,95.437,540.788,538.613,0.0
53781.0,STARLINK-4462,PAYLOAD,2024-03-30 13:44:54,15.08845185,0.0001169,53.217,217.4658,91.6579,268.4547,0.00016782,2.384e-05,0.0,0 STARLINK-4462,1 53781U 22111J   24090.57285823  .00002384  00000-0  16782-3 0  9990,2 53781  53.2170 217.4658 0001169  91.6579 268.4547 15.08845185 85836,6917.865,95.437,540.538,538.921,0.0
53781.0,STARLINK-4462,PAYLOAD,2024-03-30 15:20:17,15.088504,0.0001117,53.2172,217.1698,90.3177,269.7943,0.00028579,4.265e-05,0.0,0 STARLINK-4462,1 53781U 22111J   24090.63909670  .00004265  00000-0  28579-3 0  9997,2 53781  53.2172 217.1698 0001117  90.3177 269.7943 15.08850400 86653,6917.849,95.437,540.486,538.941,0.0
53781.0,STARLINK-4462,PAYLOAD,2024-03-31 15:11:04,15.08849091,0.0001326,53.2166,212.7098,95.4401,264.6743,0.00033646,5.072e-05,0.0,0 STARLINK-4462,1 53781U 22111J   24091.63269641  .00005072  00000-0  33646-3 0  9993,2 53781  53.2166 212.7098 0001326  95.4401 264.6743 15.08849091 86802,6917.853,95.437,540.635,538.8,0.0
53781.0,STARLINK-4462,PAYLOAD,2024-04-01 00:43:24,15.0883661,0.0001265,53.2171,210.9277,99.0003,261.1132,2.0826e-05,4.4e-07,0.0,0 STARLINK-4462,1 53781U 22111J   24092.03014089  .00000044  00000-0  20826-4 0  9993,2 53781  53.2171 210.9277 0001265  99.0003 261.1132 15.08836610 86051,6917.891,95.438,540.631,538.881,0.0
53781.0,STARLINK-4462,PAYLOAD,2024-04-01 13:26:29,15.08833035,0.0001609,53.2188,208.5525,111.5112,248.6052,5.8263e-06,-1.95e-06,0.0,0 STARLINK-4462,1 53781U 22111J   24092.56006746 -.00000195  00000-0  58263-5 0  9997,2 53781  53.2188 208.5525 0001609 111.5112 248.6052 15.08833035 86948,6917.902,95.438,540.88,538.654,0.0
53781.0,STARLINK-4462,PAYLOAD,2024-04-02 11:41:53,15.08841768,0.0001651,53.2189,204.3868,100.2381,259.8798,0.00017703,2.531e-05,0.0,0 STARLINK-4462,1 53781U 22111J   24093.48742651  .00002531  00000-0  17703-3 0  9998,2 53781  53.2189 204.3868 0001651 100.2381 259.8798 15.08841768 86272,6917.875,95.437,540.882,538.598,0.0
53781.0,STARLINK-4462,PAYLOAD,2024-04-02 13:17:16,15.08844071,0.0001533,53.2177,204.0884,99.2175,260.8991,0.00022423,3.283e-05,0.0,0 STARLINK-4462,1 53781U 22111J   24093.55366545  .00003283  00000-0  22423-3 0  9990,2 53781  53.2177 204.0884 0001533  99.2175 260.8991 15.08844071 87099,6917.868,95.437,540.793,538.672,0.0
53781.0,STARLINK-4462,PAYLOAD,2024-04-02 14:52:39,15.08845502,0.0001362,53.2166,203.7902,97.9772,262.1375,0.00025634,3.795e-05,0.0,0 STARLINK-4462,1 53781U 22111J   24093.61990468  .00003795  00000-0  25634-3 0  9999,2 53781  53.2166 203.7902 0001362  97.9772 262.1375 15.08845502 87105,6917.864,95.437,540.671,538.786,0.0
53781.0,STARLINK-4462,PAYLOAD,2024-04-03 13:08:03,15.0884294,0.0001185,53.2158,199.6269,98.1526,261.96,0.00018728,2.694e-05,0.0,0 STARLINK-4462,1 53781U 22111J   24094.54726555  .00002694  00000-0  18728-3 0  9999,2 53781  53.2158 199.6269 0001185  98.1526 261.9600 15.08842940 86434,6917.871,95.437,540.556,538.917,0.0
53781.0,STARLINK-4462,PAYLOAD,2024-04-03 16:18:49,15.08858275,0.0001322,53.2163,199.0299,98.8839,261.2303,0.00042697,6.517e-05,0.0,0 STARLINK-4462,1 53781U 22111J   24094.67973973  .00006517  00000-0  42697-3 0  9991,2 53781  53.2163 199.0299 0001322  98.8839 261.2303 15.08858275 86457,6917.825,95.436,540.604,538.775,0.0
53781.0,STARLINK-4462,PAYLOAD,2024-04-04 12:58:50,15.08841344,0.0001282,53.2161,195.1643,93.3251,266.7888,1.8119e-05,1e-08,0.0,0 STARLINK-4462,1 53781U 22111J   24095.54086576  .00000001  00000-0  18119-4 0  9997,2 53781  53.2161 195.1643 0001282  93.3251 266.7888 15.08841344 86589,6917.876,95.437,540.628,538.854,0.0
53781.0,STARLINK-4462,PAYLOAD,2024-04-05 12:49:37,15.08856563,0.0001349,53.2167,190.7031,97.76,262.3546,0.00021819,3.188e-05,0.0,0 STARLINK-4462,1 53781U 22111J   24096.53445654  .00003188  00000-0  21819-3 0  9992,2 53781  53.2167 190.7031 0001349  97.7600 262.3546 15.08856563 86736,6917.83,95.437,540.628,538.762,0.0
